UNKNOWN                 
1 82162U          26044.61513998  .00004396  00000+0  64809-2 0  9997
2 82162 100.4732 337.7274 0053727  65.8793 294.7948 13.54151088512819
UNKNOWN                 
1 82180U          26022.80037438  .00027923  00000+0  35988-2 0  9991
2 82180  65.6542 172.1760 0309603 196.2504 162.8498 14.52670083607716
UNKNOWN                 
1 82189U          26035.10841744  .00000363  00000+0  13588-3 0  9992
2 82189  74.0359 310.4570 0015641 131.2036 229.0468 14.35259601640075
UNKNOWN                 
1 82199U          26041.38511625  .00000677  00000+0  57394-3 0  9993
2 82199  82.9684 189.0403 0037600 225.3063 163.4675 13.85857303617953
UNKNOWN                 
1 82205U          26043.52732170  .00004463  00000+0  12379-2 0  9999
2 82205  63.0082  69.9156 0495905 299.2682  55.9655 13.93763830616612
UNKNOWN                 
1 82223U          26043.63066103  .00002355  00000+0  12799-2 0  9991
2 82223  99.3176 296.9987 0066622 172.0411 188.1832 14.12209105457521
UNKNOWN                 
1 82250U          26043.70813139  .00003946  00000+0  20322-2 0  9996
2 82250  98.9076 313.9732 0073691  15.9518  13.5931 14.14352454625391
UNKNOWN                 
1 82272U          26042.76318234  .00000244  00000+0  90209-3 0  9991
2 82272  67.5239  90.2235 0750802  66.9271 300.9064 12.33584436279468
UNKNOWN                 
1 82303U          26043.18733892  .00030096  00000+0  24020-1 0  9998
2 82303  81.9106 309.9399 0005992  83.1059  71.1453 13.90720761522956
UNKNOWN                 
1 82311U          26043.57991784  .00000542  00000+0  81834-3 0  9997
2 82311  99.4288  99.5973 0111958 151.9958 208.7265 13.54639603558695
UNKNOWN                 
1 82363U          26040.44723813  .00000626  00000+0  10850-2 0  9995
2 82363  66.9368  68.2563 0450827 128.1036 236.1561 13.15662666297980
UNKNOWN                 
1 82369U          26044.50509393 -.00000075  00000+0 -22129-4 0  9991
2 82369  98.8962  62.6765 0083695 164.9689 195.3991 13.98212258565945
