CCSDS_OMM_VERS = 2.0
CREATION_DATE  = 
ORIGINATOR     = 

OBJECT_NAME    = UNKNOWN
OBJECT_ID      = 
CENTER_NAME    = EARTH
REF_FRAME      = TEME
TIME_SYSTEM    = UTC
MEAN_ELEMENT_THEORY = SGP/SGP4

EPOCH          = 2026-02-13T14:45:48.094272
MEAN_MOTION    = 13.54151088
ECCENTRICITY   = .0053727
INCLINATION    = 100.4732
RA_OF_ASC_NODE = 337.7274
ARG_OF_PERICENTER = 65.8793
MEAN_ANOMALY   = 294.7948

EPHEMERIS_TYPE = 0
CLASSIFICATION_TYPE = U
NORAD_CAT_ID   = 82162
ELEMENT_SET_NO = 999
REV_AT_EPOCH   = 51281
BSTAR          = .64809E-2
MEAN_MOTION_DOT = .4396E-4
MEAN_MOTION_DDOT = 0

CCSDS_OMM_VERS = 2.0
CREATION_DATE  = 
ORIGINATOR     = 

OBJECT_NAME    = UNKNOWN
OBJECT_ID      = 
CENTER_NAME    = EARTH
REF_FRAME      = TEME
TIME_SYSTEM    = UTC
MEAN_ELEMENT_THEORY = SGP/SGP4

EPOCH          = 2026-01-22T19:12:32.346432
MEAN_MOTION    = 14.52670083
ECCENTRICITY   = .0309603
INCLINATION    = 65.6542
RA_OF_ASC_NODE = 172.1760
ARG_OF_PERICENTER = 196.2504
MEAN_ANOMALY   = 162.8498

EPHEMERIS_TYPE = 0
CLASSIFICATION_TYPE = U
NORAD_CAT_ID   = 82180
ELEMENT_SET_NO = 999
REV_AT_EPOCH   = 60771
BSTAR          = .35988E-2
MEAN_MOTION_DOT = .27923E-3
MEAN_MOTION_DDOT = 0

CCSDS_OMM_VERS = 2.0
CREATION_DATE  = 
ORIGINATOR     = 

OBJECT_NAME    = UNKNOWN
OBJECT_ID      = 
CENTER_NAME    = EARTH
REF_FRAME      = TEME
TIME_SYSTEM    = UTC
MEAN_ELEMENT_THEORY = SGP/SGP4

EPOCH          = 2026-02-04T02:36:07.266816
MEAN_MOTION    = 14.35259601
ECCENTRICITY   = .0015641
INCLINATION    = 74.0359
RA_OF_ASC_NODE = 310.4570
ARG_OF_PERICENTER = 131.2036
MEAN_ANOMALY   = 229.0468

EPHEMERIS_TYPE = 0
CLASSIFICATION_TYPE = U
NORAD_CAT_ID   = 82189
ELEMENT_SET_NO = 999
REV_AT_EPOCH   = 64007
BSTAR          = .13588E-3
MEAN_MOTION_DOT = .363E-5
MEAN_MOTION_DDOT = 0

CCSDS_OMM_VERS = 2.0
CREATION_DATE  = 
ORIGINATOR     = 

OBJECT_NAME    = UNKNOWN
OBJECT_ID      = 
CENTER_NAME    = EARTH
REF_FRAME      = TEME
TIME_SYSTEM    = UTC
MEAN_ELEMENT_THEORY = SGP/SGP4

EPOCH          = 2026-02-10T09:14:34.044000
MEAN_MOTION    = 13.85857303
ECCENTRICITY   = .00376
INCLINATION    = 82.9684
RA_OF_ASC_NODE = 189.0403
ARG_OF_PERICENTER = 225.3063
MEAN_ANOMALY   = 163.4675

EPHEMERIS_TYPE = 0
CLASSIFICATION_TYPE = U
NORAD_CAT_ID   = 82199
ELEMENT_SET_NO = 999
REV_AT_EPOCH   = 61795
BSTAR          = .57394E-3
MEAN_MOTION_DOT = .677E-5
MEAN_MOTION_DDOT = 0

CCSDS_OMM_VERS = 2.0
CREATION_DATE  = 
ORIGINATOR     = 

OBJECT_NAME    = UNKNOWN
OBJECT_ID      = 
CENTER_NAME    = EARTH
REF_FRAME      = TEME
TIME_SYSTEM    = UTC
MEAN_ELEMENT_THEORY = SGP/SGP4

EPOCH          = 2026-02-12T12:39:20.594880
MEAN_MOTION    = 13.93763830
ECCENTRICITY   = .0495905
INCLINATION    = 63.0082
RA_OF_ASC_NODE = 69.9156
ARG_OF_PERICENTER = 299.2682
MEAN_ANOMALY   = 55.9655

EPHEMERIS_TYPE = 0
CLASSIFICATION_TYPE = U
NORAD_CAT_ID   = 82205
ELEMENT_SET_NO = 999
REV_AT_EPOCH   = 61661
BSTAR          = .12379E-2
MEAN_MOTION_DOT = .4463E-4
MEAN_MOTION_DDOT = 0

CCSDS_OMM_VERS = 2.0
CREATION_DATE  = 
ORIGINATOR     = 

OBJECT_NAME    = UNKNOWN
OBJECT_ID      = 
CENTER_NAME    = EARTH
REF_FRAME      = TEME
TIME_SYSTEM    = UTC
MEAN_ELEMENT_THEORY = SGP/SGP4

EPOCH          = 2026-02-12T15:08:09.112992
MEAN_MOTION    = 14.12209105
ECCENTRICITY   = .0066622
INCLINATION    = 99.3176
RA_OF_ASC_NODE = 296.9987
ARG_OF_PERICENTER = 172.0411
MEAN_ANOMALY   = 188.1832

EPHEMERIS_TYPE = 0
CLASSIFICATION_TYPE = U
NORAD_CAT_ID   = 82223
ELEMENT_SET_NO = 999
REV_AT_EPOCH   = 45752
BSTAR          = .12799E-2
MEAN_MOTION_DOT = .2355E-4
MEAN_MOTION_DDOT = 0

CCSDS_OMM_VERS = 2.0
CREATION_DATE  = 
ORIGINATOR     = 

OBJECT_NAME    = UNKNOWN
OBJECT_ID      = 
CENTER_NAME    = EARTH
REF_FRAME      = TEME
TIME_SYSTEM    = UTC
MEAN_ELEMENT_THEORY = SGP/SGP4

EPOCH          = 2026-02-12T16:59:42.552096
MEAN_MOTION    = 14.14352454
ECCENTRICITY   = .0073691
INCLINATION    = 98.9076
RA_OF_ASC_NODE = 313.9732
ARG_OF_PERICENTER = 15.9518
MEAN_ANOMALY   = 13.5931

EPHEMERIS_TYPE = 0
CLASSIFICATION_TYPE = U
NORAD_CAT_ID   = 82250
ELEMENT_SET_NO = 999
REV_AT_EPOCH   = 62539
BSTAR          = .20322E-2
MEAN_MOTION_DOT = .3946E-4
MEAN_MOTION_DDOT = 0

CCSDS_OMM_VERS = 2.0
CREATION_DATE  = 
ORIGINATOR     = 

OBJECT_NAME    = UNKNOWN
OBJECT_ID      = 
CENTER_NAME    = EARTH
REF_FRAME      = TEME
TIME_SYSTEM    = UTC
MEAN_ELEMENT_THEORY = SGP/SGP4

EPOCH          = 2026-02-11T18:18:58.954176
MEAN_MOTION    = 12.33584436
ECCENTRICITY   = .0750802
INCLINATION    = 67.5239
RA_OF_ASC_NODE = 90.2235
ARG_OF_PERICENTER = 66.9271
MEAN_ANOMALY   = 300.9064

EPHEMERIS_TYPE = 0
CLASSIFICATION_TYPE = U
NORAD_CAT_ID   = 82272
ELEMENT_SET_NO = 999
REV_AT_EPOCH   = 27946
BSTAR          = .90209E-3
MEAN_MOTION_DOT = .244E-5
MEAN_MOTION_DDOT = 0

CCSDS_OMM_VERS = 2.0
CREATION_DATE  = 
ORIGINATOR     = 

OBJECT_NAME    = UNKNOWN
OBJECT_ID      = 
CENTER_NAME    = EARTH
REF_FRAME      = TEME
TIME_SYSTEM    = UTC
MEAN_ELEMENT_THEORY = SGP/SGP4

EPOCH          = 2026-02-12T04:29:46.082688
MEAN_MOTION    = 13.90720761
ECCENTRICITY   = .0005992
INCLINATION    = 81.9106
RA_OF_ASC_NODE = 309.9399
ARG_OF_PERICENTER = 83.1059
MEAN_ANOMALY   = 71.1453

EPHEMERIS_TYPE = 0
CLASSIFICATION_TYPE = U
NORAD_CAT_ID   = 82303
ELEMENT_SET_NO = 999
REV_AT_EPOCH   = 52295
BSTAR          = .2402E-1
MEAN_MOTION_DOT = .30096E-3
MEAN_MOTION_DDOT = 0

CCSDS_OMM_VERS = 2.0
CREATION_DATE  = 
ORIGINATOR     = 

OBJECT_NAME    = UNKNOWN
OBJECT_ID      = 
CENTER_NAME    = EARTH
REF_FRAME      = TEME
TIME_SYSTEM    = UTC
MEAN_ELEMENT_THEORY = SGP/SGP4

EPOCH          = 2026-02-12T13:55:04.901376
MEAN_MOTION    = 13.54639603
ECCENTRICITY   = .0111958
INCLINATION    = 99.4288
RA_OF_ASC_NODE = 99.5973
ARG_OF_PERICENTER = 151.9958
MEAN_ANOMALY   = 208.7265

EPHEMERIS_TYPE = 0
CLASSIFICATION_TYPE = U
NORAD_CAT_ID   = 82311
ELEMENT_SET_NO = 999
REV_AT_EPOCH   = 55869
BSTAR          = .81834E-3
MEAN_MOTION_DOT = .542E-5
MEAN_MOTION_DDOT = 0

CCSDS_OMM_VERS = 2.0
CREATION_DATE  = 
ORIGINATOR     = 

OBJECT_NAME    = UNKNOWN
OBJECT_ID      = 
CENTER_NAME    = EARTH
REF_FRAME      = TEME
TIME_SYSTEM    = UTC
MEAN_ELEMENT_THEORY = SGP/SGP4

EPOCH          = 2026-02-09T10:44:01.374432
MEAN_MOTION    = 13.15662666
ECCENTRICITY   = .0450827
INCLINATION    = 66.9368
RA_OF_ASC_NODE = 68.2563
ARG_OF_PERICENTER = 128.1036
MEAN_ANOMALY   = 236.1561

EPHEMERIS_TYPE = 0
CLASSIFICATION_TYPE = U
NORAD_CAT_ID   = 82363
ELEMENT_SET_NO = 999
REV_AT_EPOCH   = 29798
BSTAR          = .1085E-2
MEAN_MOTION_DOT = .626E-5
MEAN_MOTION_DDOT = 0

CCSDS_OMM_VERS = 2.0
CREATION_DATE  = 
ORIGINATOR     = 

OBJECT_NAME    = UNKNOWN
OBJECT_ID      = 
CENTER_NAME    = EARTH
REF_FRAME      = TEME
TIME_SYSTEM    = UTC
MEAN_ELEMENT_THEORY = SGP/SGP4

EPOCH          = 2026-02-13T12:07:20.115552
MEAN_MOTION    = 13.98212258
ECCENTRICITY   = .0083695
INCLINATION    = 98.8962
RA_OF_ASC_NODE = 62.6765
ARG_OF_PERICENTER = 164.9689
MEAN_ANOMALY   = 195.3991

EPHEMERIS_TYPE = 0
CLASSIFICATION_TYPE = U
NORAD_CAT_ID   = 82369
ELEMENT_SET_NO = 999
REV_AT_EPOCH   = 56594
BSTAR          = -.22129E-4
MEAN_MOTION_DOT = -.75E-6
MEAN_MOTION_DDOT = 0

